[{"OBJECT_NAME":"EUTELSAT 9B","OBJECT_ID":"2016-005A","EPOCH":"2026-03-05T02:53:38.857632","MEAN_MOTION":1.00275036,"ECCENTRICITY":0.00042524,"INCLINATION":0.0275,"RA_OF_ASC_NODE":61.7858,"ARG_OF_PERICENTER":258.8905,"MEAN_ANOMALY":254.5999,"EPHEMERIS_TYPE":0,"CLASSIFICATION_TYPE":"U","NORAD_CAT_ID":41310,"ELEMENT_SET_NO":999,"REV_AT_EPOCH":3707,"BSTAR":0,"MEAN_MOTION_DOT":5.3e-7,"MEAN_MOTION_DDOT":0},{"OBJECT_NAME":"EUTELSAT 65 WEST A","OBJECT_ID":"2016-014A","EPOCH":"2026-03-05T06:50:28.956768","MEAN_MOTION":1.00272078,"ECCENTRICITY":0.00022155,"INCLINATION":0.0726,"RA_OF_ASC_NODE":42.7083,"ARG_OF_PERICENTER":299.0991,"MEAN_ANOMALY":218.6378,"EPHEMERIS_TYPE":0,"CLASSIFICATION_TYPE":"U","NORAD_CAT_ID":41382,"ELEMENT_SET_NO":999,"REV_AT_EPOCH":3649,"BSTAR":0,"MEAN_MOTION_DOT":-2.85e-6,"MEAN_MOTION_DDOT":0},{"OBJECT_NAME":"EUTELSAT 117 WEST B","OBJECT_ID":"2016-038B","EPOCH":"2026-03-04T08:41:38.793120","MEAN_MOTION":1.00271881,"ECCENTRICITY":2.105e-5,"INCLINATION":0.0384,"RA_OF_ASC_NODE":342.0206,"ARG_OF_PERICENTER":243.213,"MEAN_ANOMALY":310.292,"EPHEMERIS_TYPE":0,"CLASSIFICATION_TYPE":"U","NORAD_CAT_ID":41589,"ELEMENT_SET_NO":999,"REV_AT_EPOCH":3561,"BSTAR":0,"MEAN_MOTION_DOT":-2.3e-7,"MEAN_MOTION_DDOT":0},{"OBJECT_NAME":"EUTELSAT 172B","OBJECT_ID":"2017-029B","EPOCH":"2026-03-05T06:15:24.820416","MEAN_MOTION":1.0027241,"ECCENTRICITY":8.13e-6,"INCLINATION":0.0204,"RA_OF_ASC_NODE":152.1223,"ARG_OF_PERICENTER":160.733,"MEAN_ANOMALY":115.9727,"EPHEMERIS_TYPE":0,"CLASSIFICATION_TYPE":"U","NORAD_CAT_ID":42741,"ELEMENT_SET_NO":999,"REV_AT_EPOCH":3269,"BSTAR":0,"MEAN_MOTION_DOT":-1.4e-7,"MEAN_MOTION_DDOT":0},{"OBJECT_NAME":"EUTELSAT 7C","OBJECT_ID":"2019-034B","EPOCH":"2026-03-05T02:53:38.857632","MEAN_MOTION":1.00270612,"ECCENTRICITY":0.00032807,"INCLINATION":0.0718,"RA_OF_ASC_NODE":178.1433,"ARG_OF_PERICENTER":153.1021,"MEAN_ANOMALY":241.9864,"EPHEMERIS_TYPE":0,"CLASSIFICATION_TYPE":"U","NORAD_CAT_ID":44334,"ELEMENT_SET_NO":999,"REV_AT_EPOCH":579,"BSTAR":0,"MEAN_MOTION_DOT":3.9e-7,"MEAN_MOTION_DDOT":0},{"OBJECT_NAME":"EUTELSAT 5 WEST B","OBJECT_ID":"2019-067A","EPOCH":"2026-03-05T05:24:59.654016","MEAN_MOTION":1.00272817,"ECCENTRICITY":0.00032062,"INCLINATION":0.0933,"RA_OF_ASC_NODE":311.2659,"ARG_OF_PERICENTER":42.6829,"MEAN_ANOMALY":245.2296,"EPHEMERIS_TYPE":0,"CLASSIFICATION_TYPE":"U","NORAD_CAT_ID":44624,"ELEMENT_SET_NO":999,"REV_AT_EPOCH":2339,"BSTAR":0,"MEAN_MOTION_DOT":-5.1e-7,"MEAN_MOTION_DDOT":0},{"OBJECT_NAME":"EUTELSAT KONNECT","OBJECT_ID":"2020-005B","EPOCH":"2026-03-05T02:53:38.857632","MEAN_MOTION":1.00271518,"ECCENTRICITY":0.0001022,"INCLINATION":0.0703,"RA_OF_ASC_NODE":97.3635,"ARG_OF_PERICENTER":228.382,"MEAN_ANOMALY":247.7044,"EPHEMERIS_TYPE":0,"CLASSIFICATION_TYPE":"U","NORAD_CAT_ID":45027,"ELEMENT_SET_NO":999,"REV_AT_EPOCH":2329,"BSTAR":0,"MEAN_MOTION_DOT":4.0e-7,"MEAN_MOTION_DDOT":0},{"OBJECT_NAME":"EUTELSAT QUANTUM","OBJECT_ID":"2021-069B","EPOCH":"2026-03-05T04:21:38.547360","MEAN_MOTION":1.00272663,"ECCENTRICITY":0.00028964,"INCLINATION":0.0448,"RA_OF_ASC_NODE":314.278,"ARG_OF_PERICENTER":26.4202,"MEAN_ANOMALY":295.3186,"EPHEMERIS_TYPE":0,"CLASSIFICATION_TYPE":"U","NORAD_CAT_ID":49056,"ELEMENT_SET_NO":999,"REV_AT_EPOCH":1688,"BSTAR":0,"MEAN_MOTION_DOT":1.17e-6,"MEAN_MOTION_DDOT":0},{"OBJECT_NAME":"EUTELSAT KONNECT VHTS","OBJECT_ID":"2022-110A","EPOCH":"2026-03-05T05:27:06.950592","MEAN_MOTION":1.00270447,"ECCENTRICITY":0.00029685,"INCLINATION":0.0592,"RA_OF_ASC_NODE":102.7732,"ARG_OF_PERICENTER":213.1636,"MEAN_ANOMALY":291.4865,"EPHEMERIS_TYPE":0,"CLASSIFICATION_TYPE":"U","NORAD_CAT_ID":53765,"ELEMENT_SET_NO":999,"REV_AT_EPOCH":579,"BSTAR":0,"MEAN_MOTION_DOT":8.0e-8,"MEAN_MOTION_DDOT":0},{"OBJECT_NAME":"EUTELSAT HOTBIRD 13F","OBJECT_ID":"2022-134A","EPOCH":"2026-03-05T05:30:06.664320","MEAN_MOTION":1.00272104,"ECCENTRICITY":0.00020572,"INCLINATION":0.0571,"RA_OF_ASC_NODE":296.507,"ARG_OF_PERICENTER":63.0829,"MEAN_ANOMALY":258.8856,"EPHEMERIS_TYPE":0,"CLASSIFICATION_TYPE":"U","NORAD_CAT_ID":54048,"ELEMENT_SET_NO":999,"REV_AT_EPOCH":1233,"BSTAR":0,"MEAN_MOTION_DOT":7.8e-7,"MEAN_MOTION_DDOT":0},{"OBJECT_NAME":"EUTELSAT HOTBIRD 13G","OBJECT_ID":"2022-146A","EPOCH":"2026-03-05T05:30:06.664320","MEAN_MOTION":1.00272239,"ECCENTRICITY":0.00019007,"INCLINATION":0.0451,"RA_OF_ASC_NODE":227.7099,"ARG_OF_PERICENTER":313.0529,"MEAN_ANOMALY":77.7197,"EPHEMERIS_TYPE":0,"CLASSIFICATION_TYPE":"U","NORAD_CAT_ID":54225,"ELEMENT_SET_NO":999,"REV_AT_EPOCH":642,"BSTAR":0,"MEAN_MOTION_DOT":7.8e-7,"MEAN_MOTION_DDOT":0},{"OBJECT_NAME":"EUTELSAT 10B","OBJECT_ID":"2022-157A","EPOCH":"2026-03-05T05:29:14.248032","MEAN_MOTION":1.00268373,"ECCENTRICITY":0.0001356,"INCLINATION":0.0587,"RA_OF_ASC_NODE":101.9857,"ARG_OF_PERICENTER":13.6251,"MEAN_ANOMALY":139.6075,"EPHEMERIS_TYPE":0,"CLASSIFICATION_TYPE":"U","NORAD_CAT_ID":54259,"ELEMENT_SET_NO":999,"REV_AT_EPOCH":1198,"BSTAR":0,"MEAN_MOTION_DOT":5.9e-7,"MEAN_MOTION_DDOT":0},{"OBJECT_NAME":"EUTELSAT 36D","OBJECT_ID":"2024-059A","EPOCH":"2026-03-04T19:09:38.947680","MEAN_MOTION":1.00271241,"ECCENTRICITY":2.469e-5,"INCLINATION":0.0059,"RA_OF_ASC_NODE":149.0207,"ARG_OF_PERICENTER":199.338,"MEAN_ANOMALY":137.4371,"EPHEMERIS_TYPE":0,"CLASSIFICATION_TYPE":"U","NORAD_CAT_ID":59346,"ELEMENT_SET_NO":999,"REV_AT_EPOCH":710,"BSTAR":0,"MEAN_MOTION_DOT":1.46e-6,"MEAN_MOTION_DDOT":0}]
